INTELSAT 902 (IS-902)   
1 26900U 01039A   26200.46786132 -.00000291  00000+0  00000+0 0  9998
2 26900   6.1951  71.3845 0004160  46.7622 297.4397  1.00271071 91018
INTELSAT 904 (IS-904)   
1 27380U 02007A   26200.40023269 -.00000234  00000+0  00000+0 0  9993
2 27380   6.9984  68.7946 0005438  27.8388 313.1487  1.00270287 52083
DIRECTV 5 (TEMPO 1)     
1 27426U 02023A   26200.39280763 -.00000064  00000+0  00000+0 0  9995
2 27426   4.9582  74.9074 0003062  37.4573 216.1179  1.00271874 88443
INTELSAT 905 (IS-905)   
1 27438U 02027A   26200.73576443  .00000086  00000+0  00000+0 0  9996
2 27438   6.8332  69.4042 0003594  49.6380 306.1464  1.00273297 51689
GALAXY 3C (G-3C)        
1 27445U 02030A   26200.81542595 -.00000158  00000+0  00000+0 0  9999
2 27445   3.8167  77.5563 0001727  30.7244  28.0275  1.00271201 46827
INTELSAT 906 (IS-906)   
1 27513U 02041A   26200.78030611  .00000006  00000+0  00000+0 0  9995
2 27513   5.8822  72.5153 0003526  28.0552 182.0645  1.00270800 87353
GALAXY 13 (HORIZONS-1)  
1 27954U 03044A   26200.73316442  .00000128  00000+0  00000+0 0  9997
2 27954   1.5003  83.4402 0002095  38.3181 289.6919  1.00273319 46896
INTELSAT 10-02          
1 28358U 04022A   26200.80114023 -.00000015  00000+0  00000+0 0  9998
2 28358   0.0539 254.2814 0000163 312.6618  18.0434  1.00271375 80888
DIRECTV 8               
1 28659U 05019A   26200.61572735 -.00000003  00000+0  00000+0 0  9993
2 28659   0.0198  61.6366 0003079  61.9497 276.4168  1.00272431 77393
GALAXY 28 (G-28)        
1 28702U 05022A   26200.82885933 -.00000205  00000+0  00000+0 0  9990
2 28702   3.3795  78.5271 0002453  35.7801  94.5934  1.00270977 52303
GALAXY 16 (G-16)        
1 29236U 06023A   26200.61016971 -.00000131  00000+0  00000+0 0  9998
2 29236   0.0249 142.1160 0002674 336.2625 299.6642  1.00271621 73299
DIRECTV 9S              
1 29494U 06043A   26200.52904742 -.00000119  00000+0  00000+0 0  9994
2 29494   2.5024  80.5139 0005084  33.2794 272.7747  1.00271628 51700
GALAXY 17 (G-17)        
1 31307U 07016B   26200.81733263 -.00000211  00000+0  00000+0 0  9994
2 31307   3.0523  79.4908 0003747  37.6039  29.7157  1.00271083 70139
INTELSAT 11 (IS-11)     
1 32253U 07044B   26200.83067934 -.00000234  00000+0  00000+0 0  9998
2 32253   3.6485  78.2739 0004410  99.3868  41.2514  0.99053086 68776
HORIZONS-2              
1 32388U 07063B   26200.83447602 -.00000258  00000+0  00000+0 0  9998
2 32388   2.6843  80.2275 0003630  18.8945  65.1022  1.00272677 68147
DIRECTV 11              
1 32729U 08013A   26200.61016971 -.00000129  00000+0  00000+0 0  9997
2 32729   0.0030 247.2069 0000143 167.6445   3.0106  1.00270671 45912
GALAXY 18 (G-18)        
1 32951U 08024A   26200.73853779  .00000021  00000+0  00000+0 0  9994
2 32951   0.0096   2.7298 0002882 116.3638 321.2846  1.00273194 46174
GALAXY 19 (G-19)        
1 33376U 08045A   26200.81490595 -.00000142  00000+0  00000+0 0  9996
2 33376   0.0463 242.8627 0002564 245.7551   5.3392  1.00271039 65235
FM-5                    
1 35493U 09034A   26200.81715928 -.00000203  00000+0  00000+0 0  9995
2 35493   0.0420 247.3728 0000945 126.1889 132.0422  1.00271120 46972
INTELSAT 14 (IS-14)     
1 36097U 09064A   26200.82336323 -.00000277  00000+0  00000+0 0  9999
2 36097   0.0164  47.3012 0002535  74.0294  67.6785  1.00272235 60935
INTELSAT 15 (IS-15)     
1 36106U 09067A   26200.85108854 -.00000188  00000+0  00000+0 0  9993
2 36106   0.0120  52.2278 0002254  64.7806 212.1611  1.00272458 41559
DIRECTV 12              
1 36131U 09075A   26200.61016971 -.00000107  00000+0  00000+0 0  9993
2 36131   0.0397 213.0974 0000194  13.9306 187.3005  1.00271081 46876
INTELSAT 16 (IS-16)     
1 36397U 10006A   26200.85114369 -.00000248  00000+0  00000+0 0  9995
2 36397   0.0217  66.2257 0002453  69.9818  31.6245  1.00271576 59984
XM-5                    
1 37185U 10053A   26200.61572735 -.00000027  00000+0  00000+0 0  9997
2 37185   0.0631 264.4500 0001239 312.5530 186.8643  1.00274411 57807
INTELSAT 17 (IS-17)     
1 37238U 10065B   26200.84727521 -.00000005  00000+0  00000+0 0  9995
2 37238   0.0096  94.8336 0002574  36.2686 177.5453  1.00272690 53571
INTELSAT 28 (IS-28)     
1 37392U 11016A   26200.81225024 -.00000229  00000+0  00000+0 0  9999
2 37392   1.8886  82.2293 0003884  41.8885  74.1781  1.00271634 53617
INTELSAT 18 (IS-18)     
1 37834U 11056A   26200.79852588  .00000049  00000+0  00000+0 0  9991
2 37834   0.0371 234.7213 0001866 251.0791 279.2411  1.00270474 54130
INTELSAT 22 (IS-22)     
1 38098U 12011A   26200.84848853 -.00000062  00000+0  00000+0 0  9998
2 38098   0.0220  64.3766 0001841  67.3772 183.4336  1.00272078  7510
INTELSAT 19 (IS-19)     
1 38356U 12030A   26200.79575252 -.00000060  00000+0  00000+0 0  9998
2 38356   0.0160  37.0445 0003033  81.0671 271.9225  1.00272840 50770
INTELSAT 20 (IS-20)     
1 38740U 12043A   26200.84779521 -.00000027  00000+0  00000+0 0  9993
2 38740   0.0165  77.2318 0001449 110.0452 124.0581  1.00271175 51073
INTELSAT 21 (IS-21)     
1 38749U 12045A   26200.82892110 -.00000288  00000+0  00000+0 0  9991
2 38749   0.0408 245.8610 0001755 242.7223  49.4437  1.00271723 50853
